COSMOS 2251 DEB         
1 34428U 93036RV  17345.94128014  .00001261  00000-0  33330-3 0  9996
2 34428  74.0377 171.8716 0040430 253.2107 220.7830 14.49449033462299
